#cP2023  9 28  0  0  0.00000000      96 ORBIT IGS20 HLM  IGS
## 2281 345600.00000000   900.00000000 60215 0.0000000000000
+   32   G01G02G03G04G05G06G07G08G09G10G11G12G13G14G15G16G17
+        G18G19G20G21G22G23G24G25G26G27G28G29G30G31G32  0  0
+          0  0  0  0  0  0  0  0  0  0  0  0  0  0  0  0  0
+          0  0  0  0  0  0  0  0  0  0  0  0  0  0  0  0  0
+          0  0  0  0  0  0  0  0  0  0  0  0  0  0  0  0  0
++         2  2  2  2  2  2  2  2  2  2  2  2  2  2  2  2  2
++         3  2  2  2  2  2  3  2  2  2  3  2  3  2  2  0  0
++         0  0  0  0  0  0  0  0  0  0  0  0  0  0  0  0  0
++         0  0  0  0  0  0  0  0  0  0  0  0  0  0  0  0  0
++         0  0  0  0  0  0  0  0  0  0  0  0  0  0  0  0  0
%c G  cc GPS ccc cccc cccc cccc cccc ccccc ccccc ccccc ccccc
%c cc cc ccc ccc cccc cccc cccc cccc ccccc ccccc ccccc ccccc
%f  1.2500000  1.025000000  0.00000000000  0.000000000000000
%f  0.0000000  0.000000000  0.00000000000  0.000000000000000
%i    0    0    0    0      0      0      0      0         0
%i    0    0    0    0      0      0      0      0         0
/* RAPID ORBIT COMBINATION FROM WEIGHTED AVERAGE OF:        
/* cod emr esa gfz grg jgx jpl ngs sio usn whu              
/* REFERENCED TO IGS TIME (IGST) AND TO WEIGHTED MEAN POLE: 
/* PCV:IGS20      OL/AL:FES2014b NONE     Y  ORB:CMB CLK:CMB
*  2023  9 28  5 15  0.00000000
PG01  13841.515765 -17923.014221  13251.561221    164.560099  6  7  6  83       
PG02  15083.491088 -11770.059440  18851.717919   -548.717872  2  4  6  87       
PG03  21449.810714 -12592.392388  -9304.272192   -110.829152  4  4  1  86       
PG04  11274.804237 -10136.154752 -21800.927533    168.793922  6  8  5  84       
PG05 -25645.622601   4567.729653  -5628.978309   -144.409826  5  6  7 115       
PG06  -7363.319834 -18140.935910 -17840.357576    541.935872  8  8  5 122       
PG07   4906.211247 -25780.253245   2147.666520     55.195223  3  6  1  85       
PG08  18773.313580   -862.308135  18848.744471   -144.431802     5  4  74       
PG09   2000.784983 -17390.533290 -20048.693307    -47.692749  5  7  4  96       
PG10   8519.682538  12808.084972  21871.641616    -55.156777  5  5  5  89       
PG11 -14153.386072  -5298.272089 -21826.738223   -389.765890  7  8  6  90       
PG12 -23794.795639   9801.323416  -6691.155374   -429.752491  6  7  5  81       
PG13 -20039.016297  -9320.739505  14689.933768    577.713571  6  5  7 102       
PG14  -4480.154530 -14866.253180  21574.413124    197.982378  3  3  5  83       
PG15 -18095.449369   3979.378835  18631.053157     81.777900  5  7  4 118       
PG16  24936.311020   2144.559296  -9849.973971   -447.615638  2  8  4  78       
PG17 -11282.238460 -22128.910521   9673.283171    723.865761  3  6  4  89       
PG18  -4299.437929  25834.853409   3789.062012   -431.596528  4 12  6  90       
PG19 -16809.777741 -20789.186264    619.223730    377.495880  5  6  4  89       
PG20 -21183.055271  -2232.148252 -15706.719391    409.623439  6  8  6 111       
PG21  15561.666480  -7797.873495  20308.014492    147.989156  5  4  5  94       
PG22 -11474.028537 -12546.482826  20795.022638    113.328329  5  6  3  98       
PG23  -5700.075991  16191.273357  20223.988813     74.606615  5  7  6 110       
PG24 -14563.091162  14103.979458  16555.624778   -331.580673  9  9  9 100       
PG25 -13048.904500  16283.007637 -16593.546134    470.016076  5  6  4 106       
PG26  18727.849937   7136.475813 -17721.997031    226.247771  4  7  5  91       
PG27  21923.840610  11077.575590  10362.272159    -46.603744  5  6  4  82       
PG28   7354.196971  19716.527820 -16229.903106    -16.318452  8 10  8 101       
PG29  -3085.426070  17083.049940 -20116.099862   -609.699137  7  8  4 116       
PG30  -2284.032489 -23952.519128  11073.879852   -483.774816  3  7  4 112       
PG31  12570.047707  10470.792418 -21035.828475   -223.966641  4  6  1 105       
PG32  15753.496327  20721.897403   5980.054731   -564.719119  5  6  4  89       
*  2023  9 28  5 30  0.00000000
PG01  13604.378163 -16227.574941  15471.491245    164.559441  6  7  6  81       
PG02  14912.528974  -9632.405969  20204.839474   -548.713631  3  4  6  81       
PG03  22358.142486 -12683.189206  -6598.747737   -110.809912  4  4  2  64       
PG04  13044.084702  -8396.336599 -21563.350040    168.803832  6  8  5  96       
PG05 -24995.098067   4095.373707  -8342.606440   -144.410987  6  7  7 104       
PG06  -6819.398932 -20009.447417 -15958.723819    541.929120  8  8  6 122       
PG07   5226.829131 -25744.081482   -715.174407     55.185591  3  8  1  77       
PG08  20263.301020    579.588941  17293.087573   -144.433693     5  3  52       
PG09   3822.871109 -15932.046923 -20983.155145    -47.683338  4  7  4 106       
PG10   6169.413764  13576.455806  22169.324115    -55.157773  5  5  5  87       
PG11 -13490.223972  -7690.705786 -21537.670571   -389.782031  7  8  6  89       
PG12 -24412.210840   9705.462207  -3910.461679   -429.756386  5  7  5  85       
PG13 -20916.387515 -10637.766614  12448.828436    577.717626  6  6  7 105       
PG14  -2110.707448 -15534.782756  21449.748814    197.992497  3  4  5  73       
PG15 -19772.378243   2642.296089  17165.415896     81.780894  5  7  5 113       
PG16  23794.712565   2585.016024 -12297.819990   -447.610257  2  8  3  89       
PG17 -10311.709178 -21407.882228  12178.965701    723.865439  4  6  4  89       
PG18  -4583.624701  26044.878497    911.868120   -431.607514  3 12  6  76       
PG19 -16492.913227 -20733.017398   3463.802073    377.500888  5  6  4  97       
PG20 -19574.986792  -3293.871101 -17515.285954    409.621272  6  8  6 103       
PG21  15389.687017  -5505.893780  21272.850211    147.988154  5  4  5  92       
PG22  -9211.546838 -13129.320370  21587.630197    113.321778  5  6  3  98       
PG23  -7846.038282  16841.287871  18916.826066     74.611546  5  7  6 116       
PG24 -14529.334678  12016.256381  18158.455118   -331.589976  8  9  9  84       
PG25 -14767.851338  16650.233309 -14609.767026    470.017848  6  6  4 110       
PG26  16852.124924   8055.640963 -19131.721849    226.245973  5  7  5  93       
PG27  22580.818343  11930.380105   7778.809908    -46.609231  5  6  4  64       
PG28   6870.305714  21393.725000 -14186.340390    -16.323857  8 11  8 100       
PG29  -4757.547363  15432.236276 -21111.226865   -609.699293  7  8  3 112       
PG30  -1743.843284 -24980.338797   8570.055562   -483.771644  3  6  5 109       
PG31  11930.437103  12710.423309 -20109.312121   -223.966959  4  6  1 108       
PG32  14998.022116  20350.351391   8657.905024   -564.724184  5  6  3  74       
*  2023  9 28  5 45  0.00000000
PG01  13421.464788 -14283.933209  17414.870420    164.558786  6  7  6  96       
PG02  14848.081140  -7360.863870  21223.129333   -548.709358  3  4  5  85       
PG03  22968.738735 -12709.292311  -3779.388072   -110.790622  5  5  2  64       
PG04  14865.169092  -6784.012481 -20954.880922    168.813717  6  7  5  93       
PG05 -24098.719521   3469.227604 -10914.374558   -144.412515  6  7  7 100       
PG06  -6418.843728 -21678.499888 -13800.181145    541.922329  8  9  6  90       
PG07   5501.912121 -25399.823051  -3565.261070     55.176261  3  7  2  71       
PG08  21671.215290   1823.653642  15442.669837   -144.435062     4  2  78       
PG09   5784.783524 -14518.230726 -21559.069888    -47.673911  3  7  5  97       
PG10   3851.199217  14480.285426  22092.259367    -55.158521  5  6  5  87       
PG11 -12965.541643 -10061.685388 -20877.664951   -389.798134  7  8  6  97       
PG12 -24730.749685   9545.635547  -1062.488737   -429.760176  5  7  5  78       
PG13 -21680.467287 -11709.472468   9993.541261    577.721345  6  6  7  95       
PG14    191.101650 -16309.771565  20956.343170    198.002638  3  4  5  78       
PG15 -21348.247238   1483.532301  15396.119245     81.784495  5  7  5 114       
PG16  22427.827067   3158.630961 -14542.132202   -447.604835  2  8  3  79       
PG17  -9107.424279 -20558.808966  14478.371905    723.865315  4  6  4  82       
PG18  -4800.345602  25945.985468  -1981.195725   -431.618590  4 12  5  62       
PG19 -15946.942217 -20471.758225   6249.788610    377.505249  5  6  4  96       
PG20 -17861.592130  -4530.758167 -19019.464006    409.619907  7  7  6  99       
PG21  15333.361339  -3130.454660  21882.446184    147.988288  5  5  5  85       
PG22  -6921.453147 -13849.964266  22022.389175    113.315515  5  6  3  95       
PG23  -9801.119298  17541.648341  17282.482740     74.616452  5  7  6 109       
PG24 -14581.779754   9765.214104  19434.924495   -331.599158  8  8  9  85       
PG25 -16249.538800  17014.574200 -12376.345483    470.019582  6  6  4 103       
PG26  14895.016744   9125.311835 -20218.723022    226.244155  5  6  5  92       
PG27  23049.070155  12558.137917   5063.478435    -46.614697  5  6  5  71       
PG28   6503.762703  22850.777151 -11898.999640    -16.329227  8 11  7  94       
PG29  -6583.316504  13812.418367 -21743.887213   -609.699578  7  7  3 110       
PG30  -1298.635972 -25745.375203   5917.188237   -483.768459  4  4  6 105       
PG31  11426.472203  14862.191905 -18838.845960   -223.967539  4  6  1 103       
PG32  13995.134536  19837.547122  11189.429116   -564.729348  4  6  3  73       
EOF
